start=new Date('2022-03-29T00:00:00.000Z').valueOf();
sats=[{"FILE":"3378342","TIME_SYSTEM":"UTC","RCS_SIZE":"LARGE","NORAD_CAT_ID":"47809","CLASSIFICATION_TYPE":"U","DECAY_DATE":null,"ARG_OF_PERICENTER":"63.1042","OBJECT_TYPE":"PAYLOAD","ELEMENT_SET_NO":"999","INCLINATION":"53.0540","OBJECT_NAME":"STARLINK-2390","PERIAPSIS":"546.105","ECCENTRICITY":"0.00015510","REV_AT_EPOCH":"5933","TLE_LINE1":"1 47809U 21018Y   22087.85717443  .00005313  00000-0  37517-3 0  9996","PERIOD":"95.591","LAUNCH_DATE":"2021-03-11","RA_OF_ASC_NODE":"244.2519","CENTER_NAME":"EARTH","GP_ID":"199943417","MEAN_ELEMENT_THEORY":"SGP4","APOAPSIS":"548.253","MEAN_ANOMALY":"297.0105","SITE":"AFETR","COUNTRY_CODE":"US","BSTAR":"0.00037517000000","EPHEMERIS_TYPE":"0","SEMIMAJOR_AXIS":"6925.314","MEAN_MOTION":"15.06411277","MEAN_MOTION_DOT":"0.00005313","OBJECT_ID":"2021-018Y","MEAN_MOTION_DDOT":"0.0000000000000","REF_FRAME":"TEME","TLE_LINE2":"2 47809  53.0540 244.2519 0001551  63.1042 297.0105 15.06411277 59330","EPOCH":"2022-03-28T20:34:19.870752"},{"TLE_LINE1":"1 47810U 21018Z   22087.74936013  .00001243  00000-0  10230-3 0  9993","REV_AT_EPOCH":"5917","ECCENTRICITY":"0.00013410","LAUNCH_DATE":"2021-03-11","PERIOD":"95.592","ELEMENT_SET_NO":"999","PERIAPSIS":"546.266","OBJECT_NAME":"STARLINK-2391","INCLINATION":"53.0539","OBJECT_TYPE":"PAYLOAD","ARG_OF_PERICENTER":"73.5078","DECAY_DATE":null,"CLASSIFICATION_TYPE":"U","RCS_SIZE":"LARGE","NORAD_CAT_ID":"47810","FILE":"3378342","TIME_SYSTEM":"UTC","REF_FRAME":"TEME","MEAN_MOTION_DDOT":"0.0000000000000","EPOCH":"2022-03-28T17:59:04.715232","TLE_LINE2":"2 47810  53.0539 254.7509 0001341  73.5078 286.6058 15.06406085 59170","MEAN_MOTION_DOT":"0.00001243","MEAN_MOTION":"15.06406085","OBJECT_ID":"2021-018Z","BSTAR":"0.00010230000000","COUNTRY_CODE":"US","SITE":"AFETR","MEAN_ANOMALY":"286.6058","SEMIMAJOR_AXIS":"6925.330","EPHEMERIS_TYPE":"0","GP_ID":"199944168","CENTER_NAME":"EARTH","RA_OF_ASC_NODE":"254.7509","APOAPSIS":"548.124","MEAN_ELEMENT_THEORY":"SGP4"},{"REF_FRAME":"TEME","MEAN_MOTION_DDOT":"0.0000000000000","TLE_LINE2":"2 47811  53.0530 224.5668 0001425  70.1941 289.9202 15.06402699 59600","EPOCH":"2022-03-28T18:56:08.120832","MEAN_MOTION_DOT":"0.00000645","MEAN_MOTION":"15.06402699","OBJECT_ID":"2021-018AA","MEAN_ANOMALY":"289.9202","COUNTRY_CODE":"US","BSTAR":"0.00006218400000","SITE":"AFETR","EPHEMERIS_TYPE":"0","SEMIMAJOR_AXIS":"6925.340","RA_OF_ASC_NODE":"224.5668","GP_ID":"199942916","CENTER_NAME":"EARTH","APOAPSIS":"548.192","MEAN_ELEMENT_THEORY":"SGP4","ECCENTRICITY":"0.00014250","TLE_LINE1":"1 47811U 21018AA  22087.78898288  .00000645  00000-0  62184-4 0  9990","REV_AT_EPOCH":"5960","PERIOD":"95.592","LAUNCH_DATE":"2021-03-11","ELEMENT_SET_NO":"999","OBJECT_NAME":"STARLINK-2392","INCLINATION":"53.0530","PERIAPSIS":"546.218","CLASSIFICATION_TYPE":"U","RCS_SIZE":"LARGE","NORAD_CAT_ID":"47811","OBJECT_TYPE":"PAYLOAD","ARG_OF_PERICENTER":"70.1941","DECAY_DATE":null,"FILE":"3378342","TIME_SYSTEM":"UTC"},{"PERIAPSIS":"546.060","OBJECT_NAME":"STARLINK-2393","INCLINATION":"53.0553","ELEMENT_SET_NO":"999","LAUNCH_DATE":"2021-03-11","PERIOD":"95.592","TLE_LINE1":"1 47812U 21018AB  22087.82677620  .00003131  00000-0  22902-3 0  9997","REV_AT_EPOCH":"5912","ECCENTRICITY":"0.00016620","TIME_SYSTEM":"UTC","FILE":"3378342","OBJECT_TYPE":"PAYLOAD","DECAY_DATE":null,"ARG_OF_PERICENTER":"70.7644","CLASSIFICATION_TYPE":"U","NORAD_CAT_ID":"47812","RCS_SIZE":"LARGE","OBJECT_ID":"2021-018AB","MEAN_MOTION":"15.06400830","MEAN_MOTION_DOT":"0.00003131","EPOCH":"2022-03-28T19:50:33.463680","TLE_LINE2":"2 47812  53.0553 254.3983 0001662  70.7644 289.3525 15.06400830 59120","REF_FRAME":"TEME","MEAN_MOTION_DDOT":"0.0000000000000","APOAPSIS":"548.362","MEAN_ELEMENT_THEORY":"SGP4","GP_ID":"199943166","CENTER_NAME":"EARTH","RA_OF_ASC_NODE":"254.3983","SEMIMAJOR_AXIS":"6925.346","EPHEMERIS_TYPE":"0","BSTAR":"0.00022902000000","COUNTRY_CODE":"US","SITE":"AFETR","MEAN_ANOMALY":"289.3525"},{"CLASSIFICATION_TYPE":"U","NORAD_CAT_ID":"47813","RCS_SIZE":"LARGE","OBJECT_TYPE":"PAYLOAD","ARG_OF_PERICENTER":"64.1761","DECAY_DATE":null,"TIME_SYSTEM":"UTC","FILE":"3378342","PERIOD":"95.592","LAUNCH_DATE":"2021-03-11","ECCENTRICITY":"0.00015350","TLE_LINE1":"1 47813U 21018AC  22087.74474506  .00003776  00000-0  27220-3 0  9990","REV_AT_EPOCH":"5959","OBJECT_NAME":"STARLINK-2394","INCLINATION":"53.0535","PERIAPSIS":"546.122","ELEMENT_SET_NO":"999","EPHEMERIS_TYPE":"0","SEMIMAJOR_AXIS":"6925.320","MEAN_ANOMALY":"295.9386","COUNTRY_CODE":"US","BSTAR":"0.00027220000000","SITE":"AFETR","APOAPSIS":"548.248","MEAN_ELEMENT_THEORY":"SGP4","RA_OF_ASC_NODE":"224.7624","GP_ID":"199943918","CENTER_NAME":"EARTH","TLE_LINE2":"2 47813  53.0535 224.7624 0001535  64.1761 295.9386 15.06409253 59597","EPOCH":"2022-03-28T17:52:25.973184","REF_FRAME":"TEME","MEAN_MOTION_DDOT":"0.0000000000000","OBJECT_ID":"2021-018AC","MEAN_MOTION":"15.06409253","MEAN_MOTION_DOT":"0.00003776"},{"TLE_LINE2":"2 47814  53.0543 244.3618 0001476  53.9734 306.1392 15.06406850 59332","EPOCH":"2022-03-28T20:02:29.317056","REF_FRAME":"TEME","MEAN_MOTION_DDOT":"0.0000000000000","OBJECT_ID":"2021-018AD","MEAN_MOTION":"15.06406850","MEAN_MOTION_DOT":"0.00002399","EPHEMERIS_TYPE":"0","SEMIMAJOR_AXIS":"6925.328","MEAN_ANOMALY":"306.1392","COUNTRY_CODE":"US","BSTAR":"0.00017986000000","SITE":"AFETR","APOAPSIS":"548.215","MEAN_ELEMENT_THEORY":"SGP4","RA_OF_ASC_NODE":"244.3618","GP_ID":"199943668","CENTER_NAME":"EARTH","PERIOD":"95.592","LAUNCH_DATE":"2021-03-11","ECCENTRICITY":"0.00014760","TLE_LINE1":"1 47814U 21018AD  22087.83506154  .00002399  00000-0  17986-3 0  9994","REV_AT_EPOCH":"5933","OBJECT_NAME":"STARLINK-2395","INCLINATION":"53.0543","PERIAPSIS":"546.170","ELEMENT_SET_NO":"999","CLASSIFICATION_TYPE":"U","RCS_SIZE":"MEDIUM","NORAD_CAT_ID":"47814","OBJECT_TYPE":"PAYLOAD","DECAY_DATE":null,"ARG_OF_PERICENTER":"53.9734","TIME_SYSTEM":"UTC","FILE":"3378342"},{"ELEMENT_SET_NO":"999","PERIAPSIS":"545.984","OBJECT_NAME":"STARLINK-2396","INCLINATION":"53.0538","TLE_LINE1":"1 47815U 21018AE  22087.80050622  .00001345  00000-0  10920-3 0  9997","REV_AT_EPOCH":"5933","ECCENTRICITY":"0.00017780","LAUNCH_DATE":"2021-03-11","PERIOD":"95.592","FILE":"3378342","TIME_SYSTEM":"UTC","OBJECT_TYPE":"PAYLOAD","DECAY_DATE":null,"ARG_OF_PERICENTER":"53.5397","CLASSIFICATION_TYPE":"U","NORAD_CAT_ID":"47815","RCS_SIZE":"LARGE","MEAN_MOTION_DOT":"0.00001345","MEAN_MOTION":"15.06399287","OBJECT_ID":"2021-018AE","REF_FRAME":"TEME","MEAN_MOTION_DDOT":"0.0000000000000","EPOCH":"2022-03-28T19:12:43.737408","TLE_LINE2":"2 47815  53.0538 239.5111 0001778  53.5397 306.5755 15.06399287 59339","GP_ID":"199942416","CENTER_NAME":"EARTH","RA_OF_ASC_NODE":"239.5111","APOAPSIS":"548.447","MEAN_ELEMENT_THEORY":"SGP4","COUNTRY_CODE":"US","BSTAR":"0.00010920000000","SITE":"AFETR","MEAN_ANOMALY":"306.5755","SEMIMAJOR_AXIS":"6925.351","EPHEMERIS_TYPE":"0"},{"APOAPSIS":"548.342","MEAN_ELEMENT_THEORY":"SGP4","RA_OF_ASC_NODE":"245.6683","GP_ID":"199942666","CENTER_NAME":"EARTH","EPHEMERIS_TYPE":"0","SEMIMAJOR_AXIS":"6925.379","MEAN_ANOMALY":"299.8621","BSTAR":"0.00001451300000","COUNTRY_CODE":"US","SITE":"AFETR","OBJECT_ID":"2021-018AF","MEAN_MOTION_DOT":"-0.00000065","MEAN_MOTION":"15.06390170","TLE_LINE2":"2 47816  53.0524 245.6683 0001586  60.2526 299.8621 15.06390170 59229","EPOCH":"2022-03-28T13:03:10.898496","REF_FRAME":"TEME","MEAN_MOTION_DDOT":"0.0000000000000","TIME_SYSTEM":"UTC","FILE":"3378342","CLASSIFICATION_TYPE":"U","RCS_SIZE":"LARGE","NORAD_CAT_ID":"47816","OBJECT_TYPE":"PAYLOAD","ARG_OF_PERICENTER":"60.2526","DECAY_DATE":null,"OBJECT_NAME":"STARLINK-2399","INCLINATION":"53.0524","PERIAPSIS":"546.145","ELEMENT_SET_NO":"999","PERIOD":"95.593","LAUNCH_DATE":"2021-03-11","ECCENTRICITY":"0.00015860","TLE_LINE1":"1 47816U 21018AF  22087.54387614 -.00000065  00000-0  14513-4 0  9995","REV_AT_EPOCH":"5922"},{"PERIAPSIS":"546.373","INCLINATION":"53.0557","OBJECT_NAME":"STARLINK-2400","ELEMENT_SET_NO":"999","LAUNCH_DATE":"2021-03-11","PERIOD":"95.592","REV_AT_EPOCH":"5926","TLE_LINE1":"1 47817U 21018AG  22087.82769266  .00002114  00000-0  16074-3 0  9993","ECCENTRICITY":"0.00011830","TIME_SYSTEM":"UTC","FILE":"3378342","ARG_OF_PERICENTER":"70.0328","DECAY_DATE":null,"OBJECT_TYPE":"PAYLOAD","RCS_SIZE":"LARGE","NORAD_CAT_ID":"47817","CLASSIFICATION_TYPE":"U","OBJECT_ID":"2021-018AG","MEAN_MOTION":"15.06407007","MEAN_MOTION_DOT":"0.00002114","EPOCH":"2022-03-28T19:51:52.645824","TLE_LINE2":"2 47817  53.0557 244.3922 0001183  70.0328 290.0789 15.06407007 59260","MEAN_MOTION_DDOT":"0.0000000000000","REF_FRAME":"TEME","MEAN_ELEMENT_THEORY":"SGP4","APOAPSIS":"548.011","CENTER_NAME":"EARTH","GP_ID":"199943418","RA_OF_ASC_NODE":"244.3922","SEMIMAJOR_AXIS":"6925.327","EPHEMERIS_TYPE":"0","SITE":"AFETR","BSTAR":"0.00016074000000","COUNTRY_CODE":"US","MEAN_ANOMALY":"290.0789"},{"EPHEMERIS_TYPE":"0","SEMIMAJOR_AXIS":"6925.313","MEAN_ANOMALY":"289.2056","COUNTRY_CODE":"US","BSTAR":"0.00035820000000","SITE":"AFETR","APOAPSIS":"548.307","MEAN_ELEMENT_THEORY":"SGP4","RA_OF_ASC_NODE":"249.2726","GP_ID":"199944169","CENTER_NAME":"EARTH","TLE_LINE2":"2 47818  53.0525 249.2726 0001630  70.9109 289.2056 15.06411653 59208","EPOCH":"2022-03-28T20:31:00.504480","REF_FRAME":"TEME","MEAN_MOTION_DDOT":"0.0000000000000","OBJECT_ID":"2021-018AH","MEAN_MOTION":"15.06411653","MEAN_MOTION_DOT":"0.00005059","CLASSIFICATION_TYPE":"U","RCS_SIZE":"LARGE","NORAD_CAT_ID":"47818","OBJECT_TYPE":"PAYLOAD","ARG_OF_PERICENTER":"70.9109","DECAY_DATE":null,"TIME_SYSTEM":"UTC","FILE":"3378342","PERIOD":"95.591","LAUNCH_DATE":"2021-03-11","ECCENTRICITY":"0.00016300","TLE_LINE1":"1 47818U 21018AH  22087.85486695  .00005059  00000-0  35820-3 0  9990","REV_AT_EPOCH":"5920","OBJECT_NAME":"STARLINK-2401","INCLINATION":"53.0525","PERIAPSIS":"546.049","ELEMENT_SET_NO":"999"}];
